*******************************************************************************
Ephemeris / WWW_USER Mon Mar 24 11:47:18 2025 Pasadena, USA      / Horizons    
*******************************************************************************
Target body name: (2018 WV1)                      {source: JPL#17}
Center body name: Earth (399)                     {source: DE441}
Center-site name: Gemini South Obs., Cerro Pachon
*******************************************************************************
Start time      : A.D. 2018-Aug-27 22:33:00.0000 UT      
Stop  time      : A.D. 2018-Aug-28 10:54:00.0000 UT      
Step-size       : 1 minutes
*******************************************************************************
Target pole/equ : undefined
Target radii    : undefined                                                    
Center geodetic : 289.2634, -30.2406227, 2.71233  {E-lon(deg),Lat(deg),Alt(km)}
Center cylindric: 289.2634,5517.21435,-3194.81213 {E-lon(deg),Dxy(km),Dz(km)}
Center pole/equ : ITRF93                          {East-longitude positive}
Center radii    : 6378.137, 6378.137, 6356.752 km {Equator_a, b, pole_c}       
Target primary  : Sun
Vis. interferer : MOON (R_eq= 1737.400) km        {source: DE441}
Rel. light bend : Sun                             {source: DE441}
Rel. lght bnd GM: 1.3271E+11 km^3/s^2                                          
Small-body perts: Yes                             {source: SB441-N16}
Atmos refraction: NO (AIRLESS)
RA format       : HMS
Time format     : CAL 
Calendar mode   : Mixed Julian/Gregorian
RTS-only print  : NO       
EOP file        : eop.250321.p250617                                           
EOP coverage    : DATA-BASED 1962-JAN-20 TO 2025-MAR-21. PREDICTS-> 2025-JUN-16
Units conversion: 1 au= 149597870.700 km, c= 299792.458 km/s, 1 day= 86400.0 s 
Table cut-offs 1: Elevation (-90.0deg=NO ),Airmass (>38.000=NO), Daylight (YES)
Table cut-offs 2: Solar elongation (  0.0,180.0=NO ),Local Hour Angle( 0.0=NO )
Table cut-offs 3: RA/DEC angular rate (     0.0=NO )                           
*******************************************************************************
Initial IAU76/J2000 heliocentric ecliptic osculating elements (au, days, deg.):
  EPOCH=  2458458.5 ! 2018-Dec-06.00 (TDB)         Residual RMS= .12928        
   EC= .06869100257422787  QR= .9715505345748198   TP= 2458416.866413563       
   OM= 248.5061090469913   W=  141.3742304527303   IN= 1.905403987972275       
  Equivalent ICRF heliocentric cartesian coordinates (au, au/d):
   X= 2.787163119783287E-01  Y= 8.719775267121872E-01  Z= 3.748421051204766E-01
  VX=-1.676682657337402E-02 VY= 5.516972965834891E-03 VZ= 1.749720915605096E-03
Asteroid physical parameters (km, seconds, rotational period in hours):        
   GM= n.a.                RAD= n.a.               ROTPER= n.a.                
   H= 30.3                 G= .150                 B-V= n.a.                   
                           ALBEDO= n.a.            STYP= n.a.                  
*******************************************************************************
 Date__(UT)__HR:MN     R.A._________(ICRF)_________DEC
******************************************************
$$SOE
 2018-Aug-28 04:42  m  01 20 33.533601 +12 31 31.83107
 2018-Aug-28 04:43  m  01 20 33.585547 +12 31 32.40255
 2018-Aug-28 04:44  m  01 20 33.637453 +12 31 32.97391
 2018-Aug-28 04:45  m  01 20 33.689317 +12 31 33.54512
 2018-Aug-28 04:46  m  01 20 33.741142 +12 31 34.11621
 2018-Aug-28 04:47  m  01 20 33.792926 +12 31 34.68716
 2018-Aug-28 04:48  m  01 20 33.844670 +12 31 35.25797
 2018-Aug-28 04:49  m  01 20 33.896374 +12 31 35.82865
 2018-Aug-28 04:50  m  01 20 33.948038 +12 31 36.39918
 2018-Aug-28 04:51  m  01 20 33.999663 +12 31 36.96959
 2018-Aug-28 04:52  m  01 20 34.051248 +12 31 37.53985
 2018-Aug-28 04:53  m  01 20 34.102795 +12 31 38.10997
 2018-Aug-28 04:54  m  01 20 34.154302 +12 31 38.67996
 2018-Aug-28 04:55  m  01 20 34.205770 +12 31 39.24980
 2018-Aug-28 04:56  m  01 20 34.257200 +12 31 39.81951
 2018-Aug-28 04:57  m  01 20 34.308592 +12 31 40.38907
 2018-Aug-28 04:58  m  01 20 34.359945 +12 31 40.95849
 2018-Aug-28 04:59  m  01 20 34.411260 +12 31 41.52778
 2018-Aug-28 05:00  m  01 20 34.462537 +12 31 42.09691
 2018-Aug-28 05:01  m  01 20 34.513777 +12 31 42.66591
 2018-Aug-28 05:02  m  01 20 34.564979 +12 31 43.23476
 2018-Aug-28 05:03  m  01 20 34.616143 +12 31 43.80347
 2018-Aug-28 05:04  m  01 20 34.667271 +12 31 44.37203
 2018-Aug-28 05:05  m  01 20 34.718362 +12 31 44.94045
 2018-Aug-28 05:06  m  01 20 34.769416 +12 31 45.50872
 2018-Aug-28 05:07  m  01 20 34.820434 +12 31 46.07685
 2018-Aug-28 05:08  m  01 20 34.871415 +12 31 46.64483
 2018-Aug-28 05:09  m  01 20 34.922360 +12 31 47.21266
 2018-Aug-28 05:10  m  01 20 34.973269 +12 31 47.78035
 2018-Aug-28 05:11  m  01 20 35.024143 +12 31 48.34788
 2018-Aug-28 05:12  m  01 20 35.074981 +12 31 48.91527
 2018-Aug-28 05:13  m  01 20 35.125784 +12 31 49.48251
 2018-Aug-28 05:14  m  01 20 35.176551 +12 31 50.04960
 2018-Aug-28 05:15  m  01 20 35.227284 +12 31 50.61654
 2018-Aug-28 05:16  m  01 20 35.277982 +12 31 51.18333
 2018-Aug-28 05:17  m  01 20 35.328646 +12 31 51.74997
 2018-Aug-28 05:18  m  01 20 35.379275 +12 31 52.31645
 2018-Aug-28 05:19  m  01 20 35.429870 +12 31 52.88279
 2018-Aug-28 05:20  m  01 20 35.480431 +12 31 53.44897
 2018-Aug-28 05:21  m  01 20 35.530959 +12 31 54.01500
 2018-Aug-28 05:22  m  01 20 35.581453 +12 31 54.58088
 2018-Aug-28 05:23  m  01 20 35.631913 +12 31 55.14660
 2018-Aug-28 05:24  m  01 20 35.682341 +12 31 55.71217
 2018-Aug-28 05:25  m  01 20 35.732736 +12 31 56.27758
 2018-Aug-28 05:26  m  01 20 35.783098 +12 31 56.84284
 2018-Aug-28 05:27  m  01 20 35.833428 +12 31 57.40794
 2018-Aug-28 05:28  m  01 20 35.883725 +12 31 57.97288
 2018-Aug-28 05:29  m  01 20 35.933991 +12 31 58.53767
 2018-Aug-28 05:30  m  01 20 35.984224 +12 31 59.10230
 2018-Aug-28 05:31  m  01 20 36.034426 +12 31 59.66678
 2018-Aug-28 05:32  m  01 20 36.084597 +12 32 00.23110
 2018-Aug-28 05:33  m  01 20 36.134736 +12 32 00.79525
 2018-Aug-28 05:34  m  01 20 36.184845 +12 32 01.35925
 2018-Aug-28 05:35  m  01 20 36.234922 +12 32 01.92309
 2018-Aug-28 05:36  m  01 20 36.284970 +12 32 02.48678
 2018-Aug-28 05:37  m  01 20 36.334986 +12 32 03.05030
 2018-Aug-28 05:38  m  01 20 36.384973 +12 32 03.61366
 2018-Aug-28 05:39  m  01 20 36.434930 +12 32 04.17686
 2018-Aug-28 05:40  m  01 20 36.484857 +12 32 04.73989
 2018-Aug-28 05:41  m  01 20 36.534755 +12 32 05.30277
 2018-Aug-28 05:42  m  01 20 36.584623 +12 32 05.86548
 2018-Aug-28 05:43  m  01 20 36.634463 +12 32 06.42804
 2018-Aug-28 05:44  m  01 20 36.684273 +12 32 06.99042
 2018-Aug-28 05:45  m  01 20 36.734055 +12 32 07.55265
 2018-Aug-28 05:46  m  01 20 36.783809 +12 32 08.11471
 2018-Aug-28 05:47  m  01 20 36.833535 +12 32 08.67661
 2018-Aug-28 05:48  m  01 20 36.883232 +12 32 09.23834
 2018-Aug-28 05:49  m  01 20 36.932902 +12 32 09.79991
 2018-Aug-28 05:50  m  01 20 36.982545 +12 32 10.36131
 2018-Aug-28 05:51  m  01 20 37.032160 +12 32 10.92255
 2018-Aug-28 05:52  m  01 20 37.081748 +12 32 11.48362
 2018-Aug-28 05:53  m  01 20 37.131309 +12 32 12.04452
 2018-Aug-28 05:54  m  01 20 37.180844 +12 32 12.60526
 2018-Aug-28 05:55  m  01 20 37.230353 +12 32 13.16583
 2018-Aug-28 05:56  m  01 20 37.279835 +12 32 13.72624
 2018-Aug-28 05:57  m  01 20 37.329291 +12 32 14.28647
 2018-Aug-28 05:58  m  01 20 37.378722 +12 32 14.84654
 2018-Aug-28 05:59  m  01 20 37.428127 +12 32 15.40644
 2018-Aug-28 06:00  m  01 20 37.477507 +12 32 15.96616
 2018-Aug-28 06:01  m  01 20 37.526862 +12 32 16.52572
 2018-Aug-28 06:02  m  01 20 37.576192 +12 32 17.08511
 2018-Aug-28 06:03  m  01 20 37.625498 +12 32 17.64434
 2018-Aug-28 06:04  m  01 20 37.674779 +12 32 18.20339
 2018-Aug-28 06:05  m  01 20 37.724036 +12 32 18.76226
 2018-Aug-28 06:06  m  01 20 37.773270 +12 32 19.32097
 2018-Aug-28 06:07  m  01 20 37.822480 +12 32 19.87951
 2018-Aug-28 06:08  m  01 20 37.871666 +12 32 20.43787
 2018-Aug-28 06:09  m  01 20 37.920829 +12 32 20.99607
 2018-Aug-28 06:10  m  01 20 37.969969 +12 32 21.55409
 2018-Aug-28 06:11  m  01 20 38.019087 +12 32 22.11194
 2018-Aug-28 06:12  m  01 20 38.068182 +12 32 22.66961
 2018-Aug-28 06:13  m  01 20 38.117255 +12 32 23.22712
 2018-Aug-28 06:14  m  01 20 38.166306 +12 32 23.78444
 2018-Aug-28 06:15  m  01 20 38.215335 +12 32 24.34160
 2018-Aug-28 06:16  m  01 20 38.264342 +12 32 24.89858
 2018-Aug-28 06:17  m  01 20 38.313329 +12 32 25.45538
 2018-Aug-28 06:18  m  01 20 38.362294 +12 32 26.01202
 2018-Aug-28 06:19  m  01 20 38.411238 +12 32 26.56847
 2018-Aug-28 06:20  m  01 20 38.460162 +12 32 27.12475
 2018-Aug-28 06:21  m  01 20 38.509065 +12 32 27.68086
 2018-Aug-28 06:22  m  01 20 38.557949 +12 32 28.23679
 2018-Aug-28 06:23  m  01 20 38.606812 +12 32 28.79254
 2018-Aug-28 06:24  m  01 20 38.655656 +12 32 29.34812
 2018-Aug-28 06:25  m  01 20 38.704480 +12 32 29.90352
 2018-Aug-28 06:26  m  01 20 38.753285 +12 32 30.45874
 2018-Aug-28 06:27  m  01 20 38.802071 +12 32 31.01379
 2018-Aug-28 06:28  m  01 20 38.850839 +12 32 31.56866
 2018-Aug-28 06:29  m  01 20 38.899588 +12 32 32.12335
 2018-Aug-28 06:30  m  01 20 38.948319 +12 32 32.67786
 2018-Aug-28 06:31  m  01 20 38.997032 +12 32 33.23219
 2018-Aug-28 06:32  m  01 20 39.045727 +12 32 33.78635
 2018-Aug-28 06:33  m  01 20 39.094405 +12 32 34.34032
 2018-Aug-28 06:34  m  01 20 39.143065 +12 32 34.89412
 2018-Aug-28 06:35  m  01 20 39.191708 +12 32 35.44774
 2018-Aug-28 06:36  m  01 20 39.240335 +12 32 36.00118
 2018-Aug-28 06:37  m  01 20 39.288945 +12 32 36.55444
 2018-Aug-28 06:38  m  01 20 39.337539 +12 32 37.10752
 2018-Aug-28 06:39  m  01 20 39.386117 +12 32 37.66042
 2018-Aug-28 06:40  m  01 20 39.434679 +12 32 38.21314
 2018-Aug-28 06:41  m  01 20 39.483225 +12 32 38.76567
 2018-Aug-28 06:42  m  01 20 39.531756 +12 32 39.31803
 2018-Aug-28 06:43  m  01 20 39.580272 +12 32 39.87021
 2018-Aug-28 06:44  m  01 20 39.628773 +12 32 40.42220
